STARLINK-34333          
1 64264U 25120J   26159.97718383  .00024323  00000+0  72832-3 0  9999
2 64264  53.1589  49.7688 0001232  89.7641 270.3502 15.34415086 57884
STARLINK-34240          
1 64265U 25120K   26160.01680976  .00018984  00000+0  65112-3 0  9992
2 64265  53.1619  52.8504 0001350  82.4394 277.6760 15.30217105 57892
STARLINK-34315          
1 64266U 25120L   26160.00098112  .00016063  00000+0  55319-3 0  9991
2 64266  53.1590  52.7519 0001539 111.2428 248.8738 15.30206750 57837
STARLINK-34321          
1 64267U 25120M   26159.98349198  .00017265  00000+0  52081-3 0  9998
2 64267  53.1598  49.8069 0001675 110.6512 249.4671 15.34407704 57931
STARLINK-34319          
1 64268U 25120N   26159.87005737  .00021990  00000+0  65998-3 0  9996
2 64268  53.1585  50.5173 0001259 104.8444 255.2699 15.34403317 57908
STARLINK-34298          
1 64269U 25120P   26159.92045889  .00033854  00000+0  10088-2 0  9996
2 64269  53.1584  50.1254 0001005 108.7176 251.3936 15.34391833 57829
STARLINK-34219          
1 64270U 25120Q   26160.00942259  .00022946  00000+0  78397-3 0  9994
2 64270  53.1599  52.8009 0001315  77.0426 283.0721 15.30220336 57890
STARLINK-34342          
1 64271U 25120R   26159.99043029  .00021570  00000+0  73749-3 0  9996
2 64271  53.1592  52.6882 0001374 100.6548 259.4608 15.30234203 57848
STARLINK-34001          
1 64272U 25120S   26160.01364395  .00014478  00000+0  49973-3 0  9995
2 64272  53.1594  52.8367 0001167  62.6341 297.4778 15.30216076 57791
STARLINK-34334          
1 64273U 25120T   26160.01986456  .00014585  00000+0  50353-3 0  9997
2 64273  53.1601  52.1585 0001182  97.2364 262.8771 15.30204905 57902
STARLINK-34272          
1 64274U 25120U   26159.87668573  .00019752  00000+0  67713-3 0  9996
2 64274  53.1599  53.3956 0001513  91.0741 269.0433 15.30204846 57776
STARLINK-34293          
1 64275U 25120V   26160.01047799  .00019511  00000+0  66890-3 0  9994
2 64275  53.1607  52.8094 0001360 106.8604 253.2546 15.30211530 57832
STARLINK-34350          
1 64276U 25120W   26159.98980529  .00033831  00000+0  10075-2 0  9990
2 64276  53.1583  49.8415 0000709  83.8046 276.3037 15.34412364 57933
STARLINK-34264          
1 64277U 25120X   26159.99464652  .00017929  00000+0  61593-3 0  9998
2 64277  53.1599  52.7127 0000651 122.3205 237.7859 15.30202836 57835
STARLINK-34353          
1 64278U 25120Y   26160.00414500  .00014831  00000+0  51171-3 0  9990
2 64278  53.1587  52.7704 0001615 118.5166 241.5997 15.30209623 57891
STARLINK-34377          
1 64279U 25120Z   26159.86163883  .00026255  00000+0  78540-3 0  9990
2 64279  53.1592  50.4620 0001100  66.9974 293.1144 15.34403445 57914
STARLINK-34359          
1 64280U 25120AA  26159.99992920  .00023418  00000+0  79948-3 0  9999
2 64280  53.1587  52.7400 0001059 100.4134 259.6986 15.30233518 57892
STARLINK-34366          
1 64281U 25120AB  26159.91878201  .00015628  00000+0  53862-3 0  9998
2 64281  53.1596  52.9496 0001264 113.7270 246.3863 15.30202014 57834
STARLINK-34381          
1 64282U 25120AC  26159.99253235  .00019168  00000+0  65794-3 0  9991
2 64282  53.1598  52.6983 0001643 119.7884 240.3280 15.30184788 57871
STARLINK-34448          
1 64291U 25123A   26159.85285512 -.00001714  00000+0 -13594-3 0  9993
2 64291  70.0014 324.6180 0002677 267.2571  92.8282 14.98316568 56498
STARLINK-34362          
1 64292U 25123B   26160.16670139 -.00021789  00000+0 -18235-2 0  9993
2 64292  70.0017 323.8965 0003109 267.8864 278.0167 14.98339801  5754
STARLINK-34428          
1 64293U 25123C   26160.16561035  .00002827  00000+0  24455-3 0  9990
2 64293  70.0012 323.6983 0002462 272.9907  87.0970 14.98336704 56546
STARLINK-34388          
1 64294U 25123D   26159.87371308  .00002362  00000+0  20562-3 0  9998
2 64294  70.0018 324.6830 0002857 269.8961  90.1870 14.98338728 56494
STARLINK-34424          
1 64295U 25123E   26159.88189734  .00003391  00000+0  29179-3 0  9996
2 64295  70.0020 324.7050 0002985 266.7791  93.3027 14.98337747 56491
STARLINK-34443          
1 64296U 25123F   26159.84850669  .00002750  00000+0  23811-3 0  9990
2 64296  70.0009 324.5991 0001984 259.8389 100.2546 14.98334945 56496
STARLINK-34369          
1 64297U 25123G   26159.86119426  .00002596  00000+0  22527-3 0  9993
2 64297  70.0014 324.6383 0002969 267.5070  92.5749 14.98332817 55275
STARLINK-34391          
1 64298U 25123H   26160.15308418  .00002854  00000+0  24687-3 0  9995
2 64298  70.0021 323.6520 0002759 270.4033  89.6810 14.98336943 55321
STARLINK-34378          
1 64299U 25123J   26159.84867397  .00004789  00000+0  40892-3 0  9991
2 64299  70.0007 324.6018 0002914 269.7833  90.2992 14.98327569 55278
STARLINK-34376          
1 64300U 25123K   26159.87354424  .00006837  00000+0  57993-3 0  9995
2 64300  70.0021 324.6873 0003019 262.4032  97.6784 14.98350255 55272
STARLINK-34372          
1 64301U 25123L   26159.85685454  .00002051  00000+0  17962-3 0  9990
2 64301  70.0011 324.6277 0002452 266.7649  93.3229 14.98337028 55271
