OBJECT_NAME,OBJECT_ID,EPOCH,MEAN_MOTION,ECCENTRICITY,INCLINATION,RA_OF_ASC_NODE,ARG_OF_PERICENTER,MEAN_ANOMALY,EPHEMERIS_TYPE,CLASSIFICATION_TYPE,NORAD_CAT_ID,ELEMENT_SET_NO,REV_AT_EPOCH,BSTAR,MEAN_MOTION_DOT,MEAN_MOTION_DDOT
STARLINK-34333,2025-120J,2026-06-08T23:27:08.682912,15.34415086,.0001232,53.1589,49.7688,89.7641,270.3502,0,U,64264,999,5788,.72832E-3,.24323E-3,0
STARLINK-34240,2025-120K,2026-06-09T00:24:12.363264,15.30217105,.000135,53.1619,52.8504,82.4394,277.6760,0,U,64265,999,5789,.65112E-3,.18984E-3,0
STARLINK-34315,2025-120L,2026-06-09T00:01:24.768768,15.30206750,.0001539,53.1590,52.7519,111.2428,248.8738,0,U,64266,999,5783,.55319E-3,.16063E-3,0
STARLINK-34321,2025-120M,2026-06-08T23:36:13.707072,15.34407704,.0001675,53.1598,49.8069,110.6512,249.4671,0,U,64267,999,5793,.52081E-3,.17265E-3,0
STARLINK-34319,2025-120N,2026-06-08T20:52:52.956768,15.34403317,.0001259,53.1585,50.5173,104.8444,255.2699,0,U,64268,999,5790,.65998E-3,.2199E-3,0
STARLINK-34298,2025-120P,2026-06-08T22:05:27.648096,15.34391833,.0001005,53.1584,50.1254,108.7176,251.3936,0,U,64269,999,5782,.10088E-2,.33854E-3,0
STARLINK-34219,2025-120Q,2026-06-09T00:13:34.111776,15.30220336,.0001315,53.1599,52.8009,77.0426,283.0721,0,U,64270,999,5789,.78397E-3,.22946E-3,0
STARLINK-34342,2025-120R,2026-06-08T23:46:13.177056,15.30234203,.0001374,53.1592,52.6882,100.6548,259.4608,0,U,64271,999,5784,.73749E-3,.2157E-3,0
STARLINK-34001,2025-120S,2026-06-09T00:19:38.837280,15.30216076,.0001167,53.1594,52.8367,62.6341,297.4778,0,U,64272,999,5779,.49973E-3,.14478E-3,0
STARLINK-34334,2025-120T,2026-06-09T00:28:36.297984,15.30204905,.0001182,53.1601,52.1585,97.2364,262.8771,0,U,64273,999,5790,.50353E-3,.14585E-3,0
STARLINK-34272,2025-120U,2026-06-08T21:02:25.647072,15.30204846,.0001513,53.1599,53.3956,91.0741,269.0433,0,U,64274,999,5777,.67713E-3,.19752E-3,0
STARLINK-34293,2025-120V,2026-06-09T00:15:05.298336,15.30211530,.000136,53.1607,52.8094,106.8604,253.2546,0,U,64275,999,5783,.6689E-3,.19511E-3,0
STARLINK-34350,2025-120W,2026-06-08T23:45:19.177056,15.34412364,.0000709,53.1583,49.8415,83.8046,276.3037,0,U,64276,999,5793,.10075E-2,.33831E-3,0
STARLINK-34264,2025-120X,2026-06-08T23:52:17.459328,15.30202836,.0000651,53.1599,52.7127,122.3205,237.7859,0,U,64277,999,5783,.61593E-3,.17929E-3,0
STARLINK-34353,2025-120Y,2026-06-09T00:05:58.128000,15.30209623,.0001615,53.1587,52.7704,118.5166,241.5997,0,U,64278,999,5789,.51171E-3,.14831E-3,0
STARLINK-34377,2025-120Z,2026-06-08T20:40:45.594912,15.34403445,.00011,53.1592,50.4620,66.9974,293.1144,0,U,64279,999,5791,.7854E-3,.26255E-3,0
STARLINK-34359,2025-120AA,2026-06-08T23:59:53.882880,15.30233518,.0001059,53.1587,52.7400,100.4134,259.6986,0,U,64280,999,5789,.79948E-3,.23418E-3,0
STARLINK-34366,2025-120AB,2026-06-08T22:03:02.765664,15.30202014,.0001264,53.1596,52.9496,113.7270,246.3863,0,U,64281,999,5783,.53862E-3,.15628E-3,0
STARLINK-34381,2025-120AC,2026-06-08T23:49:14.795040,15.30184788,.0001643,53.1598,52.6983,119.7884,240.3280,0,U,64282,999,5787,.65794E-3,.19168E-3,0
STARLINK-34448,2025-123A,2026-06-08T20:28:06.682368,14.98316568,.0002677,70.0014,324.6180,267.2571,92.8282,0,U,64291,999,5649,-.13594E-3,-.1714E-4,0
STARLINK-34362,2025-123B,2026-06-09T04:00:03.000096,14.98339801,.0003109,70.0017,323.8965,267.8864,278.0167,0,U,64292,999,575,-.18235E-2,-.21789E-3,0
STARLINK-34428,2025-123C,2026-06-09T03:58:28.734240,14.98336704,.0002462,70.0012,323.6983,272.9907,87.0970,0,U,64293,999,5654,.24455E-3,.2827E-4,0
STARLINK-34388,2025-123D,2026-06-08T20:58:08.810112,14.98338728,.0002857,70.0018,324.6830,269.8961,90.1870,0,U,64294,999,5649,.20562E-3,.2362E-4,0
STARLINK-34424,2025-123E,2026-06-08T21:09:55.930176,14.98337747,.0002985,70.0020,324.7050,266.7791,93.3027,0,U,64295,999,5649,.29179E-3,.3391E-4,0
STARLINK-34443,2025-123F,2026-06-08T20:21:50.978016,14.98334945,.0001984,70.0009,324.5991,259.8389,100.2546,0,U,64296,999,5649,.23811E-3,.275E-4,0
STARLINK-34369,2025-123G,2026-06-08T20:40:07.184064,14.98332817,.0002969,70.0014,324.6383,267.5070,92.5749,0,U,64297,999,5527,.22527E-3,.2596E-4,0
STARLINK-34391,2025-123H,2026-06-09T03:40:26.473152,14.98336943,.0002759,70.0021,323.6520,270.4033,89.6810,0,U,64298,999,5532,.24687E-3,.2854E-4,0
STARLINK-34378,2025-123J,2026-06-08T20:22:05.431008,14.98327569,.0002914,70.0007,324.6018,269.7833,90.2992,0,U,64299,999,5527,.40892E-3,.4789E-4,0
STARLINK-34376,2025-123K,2026-06-08T20:57:54.222336,14.98350255,.0003019,70.0021,324.6873,262.4032,97.6784,0,U,64300,999,5527,.57993E-3,.6837E-4,0
STARLINK-34372,2025-123L,2026-06-08T20:33:52.232256,14.98337028,.0002452,70.0011,324.6277,266.7649,93.3229,0,U,64301,999,5527,.17962E-3,.2051E-4,0
